QUETZSAT 1              
1 37826U 11054A   22112.45327080 -.00000252  00000+0  00000+0 0  9992
2 37826   0.0264  20.4735 0002928  23.0052 253.1870  1.00271994 34684
INTELSAT 18 (IS-18)     
1 37834U 11056A   22112.59092194  .00000042  00000+0  00000+0 0  9999
2 37834   0.0369  32.5987 0002012   0.6709 210.0829  1.00270030 38608
EUTELSAT 16A            
1 37836U 11057A   22112.53895924  .00000093  00000+0  00000+0 0  9994
2 37836   0.0716   3.0001 0005068  34.3395  23.2431  1.00270370 30753
VIASAT-1                
1 37843U 11059A   22112.56021538 -.00000034  00000+0  00000+0 0  9995
2 37843   0.0145 240.0537 0002310 164.7160 252.4007  1.00271090 32116
ASIASAT 7               
1 37933U 11069A   22111.89702094 -.00000341  00000+0  00000+0 0  9995
2 37933   0.0291 116.2364 0001663 256.4080 265.6891  1.00268217 38244
BEIDOU 10               
1 37948U 11073A   22112.26477703 -.00000144  00000+0  00000+0 0  9995
2 37948  50.4269 289.9499 0077828 217.1564 253.7510  1.00265612 38194
LUCH 5A                 
1 37951U 11074B   22112.49069556 -.00000054  00000+0  00000+0 0  9998
2 37951   4.8777  98.7378 0004885 313.0689 142.3484  1.00273189 37981
NIGCOMSAT 1R            
1 38014U 11077A   22112.60390295  .00000134  00000+0  00000+0 0  9990
2 38014   0.0502  62.7422 0003841 342.4485  65.3142  1.00271549 37756
FENGYUN 2F              
1 38049U 12002A   22112.48632979 -.00000366  00000+0  00000+0 0  9999
2 38049   3.6570  80.0801 0003620   7.9115  49.5565  1.00281505 37677
WGS F4 (USA 233)        
1 38070U 12003A   22112.55343744 -.00000225  00000+0  00000+0 0  9995
2 38070   0.0180 213.5494 0000538 221.2725  63.4029  1.00269446 28943
SES-4                   
1 38087U 12007A   22112.43869076 -.00000178  00000+0  00000+0 0  9992
2 38087   0.0228 298.1289 0002365 101.9496 306.3213  1.00272470 37028
BEIDOU 11               
1 38091U 12008A   22112.62141223  .00000046  00000+0  00000+0 0  9999
2 38091   1.4404  65.9202 0015298 325.7438 101.4420  1.00275393 37278
MUOS-1                  
1 38093U 12009A   22112.51567199 -.00000136  00000+0  00000+0 0  9995
2 38093   2.8739  30.5499 0059265 359.9288 265.7434  1.00271422 37230
INTELSAT 22 (IS-22)     
1 38098U 12011A   22112.55012316 -.00000069  00000+0  00000+0 0  9998
2 38098   0.0194 265.5885 0002449 125.5021  89.6367  1.00269799 36616
APSTAR 7                
1 38107U 12013A   22112.55099535 -.00000112  00000+0  00000+0 0  9998
2 38107   0.0120 207.8708 0002871 221.7276  55.8346  1.00271097 36604
YAHSAT 1B               
1 38245U 12016A   22112.61107135  .00000116  00000+0  00000+0 0  9990
2 38245   0.0251 122.7479 0002155 285.0489  70.4247  1.00269688 30392
AEHF-2 (USA 235)        
1 38254U 12019A   22112.51698028 -.00000169  00000+0  00000+0 0  9997
2 38254   3.2312  60.3490 0003449 323.3077 278.8242  1.00272018 35644
JCSAT-13                
1 38331U 12023A   22112.55535448 -.00000367  00000+0  00000+0 0  9998
2 38331   0.0273 120.6696 0003046 308.6937 105.1450  1.00269077 36323
VINASAT-2               
1 38332U 12023B   22112.55535448 -.00000339  00000+0  00000+0 0  9998
2 38332   0.0028 137.0851 0002758 278.2897 126.9831  1.00272455 31450
NIMIQ 6                 
1 38342U 12026A   22112.52410716 -.00000184  00000+0  00000+0 0  9997
2 38342   0.0496  75.5972 0002770 320.5430 272.0107  1.00270160 35216
CHINASAT 2A (ZX 2A)     
1 38352U 12028A   22112.51785719 -.00000304  00000+0  00000+0 0  9991
2 38352   0.0239 290.5924 0003436 106.7734  97.8531  1.00273885 36176
INTELSAT 19 (IS-19)     
1 38356U 12030A   22112.48848003 -.00000067  00000+0  00000+0 0  9996
2 38356   0.0216 120.5501 0003395 281.6648 150.1611  1.00270861 35238
ECHOSTAR 17             
1 38551U 12035A   22112.51445094 -.00000085  00000+0  00000+0 0  9995
2 38551   0.0151 216.3053 0001918 172.7688 259.5661  1.00270261 35853
METEOSAT-10 (MSG-3)     
1 38552U 12035B   22112.34563302  .00000050  00000+0  00000+0 0  9991
2 38552   1.4466  37.5238 0001084 260.8124  45.6514  1.00269566 35648
SES-5                   
1 38652U 12036A   22112.40118882  .00000024  00000+0  00000+0 0  9990
2 38652   0.0566 292.0917 0002028 110.6175 317.1259  1.00271555 29270
TIANLIAN 1-03           
1 38730U 12040A   22112.53983142  .00000116  00000+0  00000+0 0  9997
2 38730   1.8735  92.0486 0008130 330.7919   2.4601  1.00274871 35775
INTELSAT 20 (IS-20)     
1 38740U 12043A   22112.54942542 -.00000035  00000+0  00000+0 0  9992
2 38740   0.0208 151.6112 0001276  45.6265 279.6348  1.00270292 35544
HYLAS 2                 
1 38741U 12043B   22112.54192465  .00000144  00000+0  00000+0 0  9994
2 38741   0.0359  84.7303 0002056 308.7287  43.2438  1.00269285 35550
INTELSAT 21 (IS-21)     
1 38749U 12045A   22112.52421937 -.00000295  00000+0  00000+0 0  9999
2 38749   0.0093 204.6421 0002337 195.0230 301.6165  1.00272626 35320
ASTRA 2F                
1 38778U 12051A   22112.54140135  .00000140  00000+0  00000+0 0  9996
2 38778   0.0555 238.0323 0000532  12.7745 182.8932  1.00274720 25910
GSAT-10                 
1 38779U 12051B   22112.55230361 -.00000175  00000+0  00000+0 0  9998
2 38779   0.0449 110.5330 0000365  59.2540 322.6181  1.00271206 34914
INTELSAT 23 (IS-23)     
1 38867U 12057A   22112.47978229 -.00000295  00000+0  00000+0 0  9998
2 38867   0.0572 101.9930 0002577  75.6274 152.6254  1.00271482 34730
BEIDOU 16               
1 38953U 12059A   22112.55256528 -.00000185  00000+0  00000+0 0  9994
2 38953   1.8514  84.4502 0013061 295.4807 113.5074  1.00275137 34709
LUCH 5B                 
1 38977U 12061A   22112.65214313 -.00000143  00000+0  00000+0 0  9994
2 38977   7.1722  63.0165 0004139   9.5707 356.5568  1.00271143 34971
YAMAL 300K              
1 38978U 12061B   22112.57227656  .00000061  00000+0  00000+0 0  9998
2 38978   0.0150 210.8438 0000453 261.4476 127.2853  1.00273299 34425
STAR ONE C3             
1 38991U 12062A   22112.45545715 -.00000259  00000+0  00000+0 0  9990
2 38991   0.0080 206.5079 0002565 208.7083 244.2324  1.00270049 34556
EUTELSAT 21B            
1 38992U 12062B   22112.32476895  .00000120  00000+0  00000+0 0  9995
2 38992   0.0714   5.6129 0002637  32.5465 310.7287  1.00269581 34626
ECHOSTAR 16             
1 39008U 12065A   22112.52352163 -.00000292  00000+0  00000+0 0  9991
2 39008   0.0168 213.2981 0001833 181.8429 302.3748  1.00269402 34414
CHINASAT 12 (ZX 12)     
1 39017U 12067A   22112.55326301 -.00000217  00000+0  00000+0 0  9998
2 39017   0.0158 218.4486 0003063 186.2867  92.5077  1.00269416 34308
EUTELSAT 70B            
1 39020U 12069A   22112.54986150 -.00000054  00000+0  00000+0 0  9996
2 39020   0.0668   4.6644 0001672 198.7118 275.6457  1.00270803 34308
YAMAL 402               
1 39022U 12070A   22111.25465913  .00000080  00000+0  00000+0 0  9994
2 39022   0.0143 244.9531 0004487 147.3786 323.5769  1.00274332 34377
SKYNET 5D               
1 39034U 12075A   22112.47455535  .00000088  00000+0  00000+0 0  9994
2 39034   0.0730   3.5346 0003500  40.7704  29.8226  1.00273844 33961
MEXSAT 3                
1 39035U 12075B   22112.56021538 -.00000036  00000+0  00000+0 0  9991
2 39035   0.0100 252.6048 0002210 154.5280 250.3377  1.00271987 33974
TDRS 11                 
1 39070U 13004A   22112.59733785  .00000066  00000+0  00000+0 0  9992
2 39070   2.9831 344.5152 0007368  52.0387 214.8579  1.00266000 31484
AMAZONAS 3              
1 39078U 13006A   22112.52360885 -.00000293  00000+0  00000+0 0  9995
2 39078   0.0200 203.1572 0001361 169.3877 325.4547  1.00274330 29699
AZERSPACE 1             
1 39079U 13006B   22112.61022466  .00000122  00000+0  00000+0 0  9996
2 39079   0.0341  63.8405 0002107   4.9744  47.4971  1.00273739 33608
SBIRS GEO-2 (USA 241)   
1 39120U 13011A   22112.53983142  .00000112  00000+0  00000+0 0  9996
2 39120   1.9276  18.9708 0001824  13.0684  33.5728  1.00272630 33333
EUTELSAT 117 WEST A     
1 39122U 13012A   22112.52702841 -.00000023  00000+0  00000+0 0  9995
2 39122   0.0115 126.2263 0002300 255.1650 262.0900  1.00272140 33234
ANIK G1                 
1 39127U 13014A   22112.51436373 -.00000084  00000+0  00000+0 0  9992
2 39127   0.0460 104.2015 0000699 252.5509 291.6585  1.00271438 33041
CHINASAT 11 (ZX 11)     
1 39157U 13020A   22111.63799311 -.00000298  00000+0  00000+0 0  9995
2 39157   0.0064 243.4690 0001752 147.1137 146.6976  1.00271831 32933
EUTELSAT 7B             
1 39163U 13022A   22112.40118882  .00000038  00000+0  00000+0 0  9999
2 39163   0.0734  26.0429 0005667 354.0529 341.7581  1.00272344 32763
WGS F5 (USA 243)        
1 39168U 13024A   22112.47978285 -.00000294  00000+0  00000+0 0  9999
2 39168   0.0174 223.0082 0000480 213.8435 253.8944  1.00271076 31964
SES-6                   
1 39172U 13026A   22112.45589067 -.00000271  00000+0  00000+0 0  9995
2 39172   0.0345 297.5346 0002424 101.4872 295.0844  1.00270727 32516
IRNSS-1A                
1 39199U 13034A   22108.52792278  .00000103  00000+0  00000+0 0  9999
2 39199  32.2976  86.2873 0017964 185.9163 179.5016  1.00270733 32126
MUOS-2                  
1 39206U 13036A   22112.59407527  .00000055  00000+0  00000+0 0  9998
2 39206   2.6592  21.2202 0050494 180.0276  46.2705  1.00268038 31984
ALPHASAT                
1 39215U 13038A   22112.54070360  .00000125  00000+0  00000+0 0  9994
2 39215   2.6938  14.2376 0002185  46.8797   8.9556  1.00270545 28816
INSAT-3D                
1 39216U 13038B   22112.58082178 -.00000167  00000+0  00000+0 0  9996
2 39216   0.0687  94.7932 0001608 321.1447  85.8272  1.00271984 31890
WGS F6 (USA 244)        
1 39222U 13041A   22112.56456336  .00000079  00000+0  00000+0 0  9997
2 39222   0.0126 242.7073 0000401 242.7664 153.1602  1.00269307 30841
ES'HAIL 1               
1 39233U 13044A   22112.54087806  .00000133  00000+0  00000+0 0  9993
2 39233   0.0581  35.0318 0002134  11.8002  23.9430  1.00272838 31420
